[{"OBJECT_NAME":"STARLINK-35065","OBJECT_ID":"2025-194H","EPOCH":"2026-03-09T13:12:01.205280","MEAN_MOTION":15.05652006,"ECCENTRICITY":0.00021494,"INCLINATION":97.6028,"RA_OF_ASC_NODE":284.2088,"ARG_OF_PERICENTER":69.3419,"MEAN_ANOMALY":290.8038,"EPHEMERIS_TYPE":0,"CLASSIFICATION_TYPE":"U","NORAD_CAT_ID":65441,"ELEMENT_SET_NO":999,"REV_AT_EPOCH":2962,"BSTAR":0.00045294617,"MEAN_MOTION_DOT":6.481e-5,"MEAN_MOTION_DDOT":0},{"OBJECT_NAME":"COSMOS 2251 DEB","OBJECT_ID":"1993-036BC","EPOCH":"2026-03-09T15:03:07.178688","MEAN_MOTION":15.0931248,"ECCENTRICITY":0.0027782,"INCLINATION":73.8339,"RA_OF_ASC_NODE":121.9492,"ARG_OF_PERICENTER":197.5511,"MEAN_ANOMALY":285.2146,"EPHEMERIS_TYPE":0,"CLASSIFICATION_TYPE":"U","NORAD_CAT_ID":33811,"ELEMENT_SET_NO":999,"REV_AT_EPOCH":91327,"BSTAR":0.0014101,"MEAN_MOTION_DOT":0.00022722,"MEAN_MOTION_DDOT":0}]
